LEASAT 5                
1 20410U 90002B   15289.25542791 -.00000130  00000-0  00000+0 0  9992
2 20410  11.4741  16.8321 0001786 246.7170 213.4457  0.99599869 79609
INTELSAT 701 (IS-701)   
1 22871U 93066A   15287.30401625 -.00000219  00000-0  00000-0 0  9991
2 22871   3.0232  70.3624 0003840 154.9345 237.2144  1.00273172 80262
INTELSAT 702 (IS-702)   
1 23124U 94034A   15289.11198137  .00000150  00000-0  00000+0 0  9993
2 23124   3.3721  68.6755 0002238 143.2662 245.6366  1.00276565 92304
INTELSAT 26 (IS-26)     
1 24732U 97007A   15287.88384383 -.00000010  00000-0  00000-0 0  9991
2 24732   6.4697  54.7657 0005052 171.3136 181.0482  1.00274461 68193
GALAXY 25 (G-25)        
1 24812U 97026A   15287.29781310 -.00000169  00000-0  00000-0 0  9992
2 24812   0.0167 266.1992 0002561 302.4875 187.9732  1.00272198 67269
INTELSAT 5 (IS-5)       
1 24916U 97046A   15289.62078840 -.00000142  00000-0  00000+0 0  9995
2 24916   2.3473  74.1340 0002866 122.1601 209.0506  1.00272093 66533
INTELSAT 805 (IS-805)   
1 25371U 98037A   15287.18027000 -.00000293  00000-0  00000+0 0  9990
2 25371   0.0525  42.2640 0002790 180.5856 168.9829  1.00273451 63477
INTELSAT 7 (IS-7)       
1 25473U 98052A   15289.13497613 -.00000146  00000-0  00000+0 0  9995
2 25473   1.9357  77.1824 0004760 127.7654 209.8154  1.00273506 62568
AFRISTAR                
1 25515U 98063A   15289.00905336  .00000123  00000-0  00000+0 0  9990
2 25515   2.1141  70.9144 0004736 142.8270 194.7352  1.00273181 62044
INTELSAT 8 (IS-8)       
1 25522U 98065A   15287.59084155 -.00000037  00000-0  00000+0 0  9994
2 25522   0.0023 269.9588 0002802 294.5027 200.0735  1.00272983 62042
GALAXY 27 (G-27)        
1 25922U 99052A   15289.59083218 -.00000009  00000-0  00000+0 0  9995
2 25922   2.0120  76.0725 0007860 113.2982 114.3616  1.00273263 58819
GALAXY 11 (G-11)        
1 26038U 99071A   15288.50214855 -.00000291  00000-0  00000+0 0  9991
2 26038   0.0437 290.5065 0000768  12.6160 205.7711  1.00269997 58020
SIRIUS-1                
1 26390U 00035A   15286.19799887 -.00000034  00000-0  00000+0 0  9995
2 26390  59.7546 235.2253 2633804 268.6720 214.3747  1.00278783 55988
INTELSAT 9 (IS-9)       
1 26451U 00043A   15288.31984162 -.00000274  00000-0  00000-0 0  9997
2 26451   2.3297  74.4149 0002609 124.6884 256.5080  1.00271088  5066
SIRIUS-2                
1 26483U 00051A   15281.18635925  .00000085  00000-0  00000-0 0  9998
2 26483  64.4195 115.2240 2737356 268.2793 326.1348  1.00274590  6022
INTELSAT 12 (IS-12)     
1 26590U 00068A   15288.68819941  .00000131  00000-0  00000+0 0  9990
2 26590   0.0129 245.6283 0002132 326.7643 104.2796  1.00273640 54714
INTELSAT 1R (IS-1R)     
1 26608U 00072A   15286.34698637 -.00000291  00000-0  00000+0 0  9991
2 26608   0.0343 303.0814 0000398 150.1847   3.2746  1.00272567 54550
SIRIUS-3                
1 26626U 00077A   15289.10954964 -.00000106  00000-0  00000+0 0  9996
2 26626  64.4556 355.1331 2668102 269.1802  65.0196  1.00279974 54496
XM-1 (ROLL)             
1 26761U 01018A   15288.24498666 -.00000028  00000-0  10000-3 0  9996
2 26761   0.1188 253.8094 0005239  88.0965  14.5127  1.00272320 52934
INTELSAT 10 (IS-10)     
1 26766U 01019A   15289.89447579  .00000122  00000-0  00000+0 0  9990
2 26766   0.2514  86.5797 0002504 124.8991 183.1533  1.00271410 52869
INTELSAT 901 (IS-901)   
1 26824U 01024A   15287.35509884 -.00000147  00000-0  00000+0 0  9996
2 26824   0.0370 291.3842 0002713 271.6777 289.3802  1.00272177 52526
INTELSAT 902 (IS-902)   
1 26900U 01039A   15287.93280779  .00000027  00000-0  00000+0 0  9996
2 26900   0.0038 248.7850 0002945 322.6913 209.5159  1.00272174 51696
DIRECTV 4S              
1 26985U 01052A   15288.57476168 -.00000119  00000-0  00000+0 0  9997
2 26985   0.0363  86.6718 0001875 111.1399 291.7294  1.00272303 50913
INTELSAT 904 (IS-904)   
1 27380U 02007A   15288.99054714  .00000043  00000-0  00000+0 0  9998
2 27380   0.0323 285.3744 0002831 272.2221 243.2234  1.00273725 50029
INTELSAT 903 (IS-903)   
1 27403U 02016A   15287.23791106 -.00000245  00000-0  00000+0 0  9998
2 27403   0.0225 317.5476 0003404 249.9579 226.1336  1.00271870 49558
DIRECTV 5 (TEMPO 1)     
1 27426U 02023A   15289.59428089 -.00000061  00000-0  00000+0 0  9995
2 27426   0.0130 241.8368 0003018 319.2633 287.5433  1.00270900 49248
INTELSAT 905 (IS-905)   
1 27438U 02027A   15286.34663193 -.00000193  00000-0  00000+0 0  9995
2 27438   0.0037 257.6532 0002212 294.7199 289.5249  1.00271424 48860
GALAXY 3C (G-3C)        
1 27445U 02030A   15288.58449716 -.00000157  00000-0  00000+0 0  9998
2 27445   0.0075 288.4331 0001757  69.5420 141.2395  1.00274572 48871
INTELSAT 906 (IS-906)   
1 27513U 02041A   15289.62875420  .00000009  00000-0  00000+0 0  9992
2 27513   0.0206 323.7355 0002984 236.4852 115.1256  1.00273565 47909
INTELSAT 907 (IS-907)   
1 27683U 03007A   15287.12325353 -.00000209  00000-0  00000+0 0  9994
2 27683   0.0210 229.3270 0002515 339.6007 190.3228  1.00272319 46287
GALAXY 12 (G-12)        
1 27715U 03013B   15289.21957252  .00000054  00000-0  00000+0 0  9995
2 27715   0.0526  94.8608 0002623 121.7650 117.8603  1.00271476 45921
GALAXY 23 (G-23)        
1 27854U 03034A   15286.61142663  .00000004  00000-0  00000+0 0  9990
2 27854   0.0073 224.6672 0003149 340.5006 275.8313  1.00273290 44519
GALAXY 13 (HORIZONS-1)  
1 27954U 03044A   15287.64321698  .00000041  00000-0  00000+0 0  9994
2 27954   0.0042 231.4101 0002276  49.1211 206.9015  1.00273090 44072
DIRECTV 7S              
1 28238U 04016A   15289.41006150 -.00000004  00000-0  00000+0 0  9990
2 28238   0.0379 302.8543 0002818 265.1685 205.1806  1.00273836 42009
INTELSAT 10-02          
1 28358U 04022A   15287.94286257 -.00000016  00000-0  00000-0 0  9998
2 28358   0.0100 201.6096 0002444 347.0603 172.9723  1.00272772 41565
XM-3 (RHYTHM)           
1 28626U 05008A   15289.28379022 -.00000211  00000-0  00000+0 0  9999
2 28626   0.0031 332.1395 0000218 183.1310 246.3108  1.00272415 38999
SPACEWAY 1              
1 28644U 05015A   15289.26689369 -.00000107  00000-0  00000+0 0  9997
2 28644   0.0109 231.6914 0000308 250.4364 255.4987  1.00271046 38447
DIRECTV 8               
1 28659U 05019A   15289.38573957 -.00000120  00000-0  00000+0 0  9990
2 28659   0.0049 269.6164 0003146 298.5478 214.4673  1.00272171 38117
GALAXY 28 (G-28)        
1 28702U 05022A   15288.31158404 -.00000191  00000-0  00000+0 0  9999
2 28702   0.0085 143.9851 0000571 272.1457 350.5903  1.00271897 37747
GALAXY 14 (G-14)        
1 28790U 05030A   15289.20832294  .00000031  00000-0  00000+0 0  9992
2 28790   0.0479  52.8956 0002355 150.0897 131.4456  1.00273226 37230
GALAXY 15 (G-15)        
1 28884U 05041A   15288.65736765  .00000073  00000-0  00000+0 0  9998
2 28884   0.0606  62.1427 0001431 164.8762 260.5383  1.00274921 36540
SPACEWAY 2              
1 28903U 05046B   15289.38579294 -.00000131  00000-0  00000+0 0  9994
2 28903   0.0130 268.7996 0000244 267.4759 248.1432  1.00272277 36422
GALAXY 16 (G-16)        
1 29236U 06023A   15288.58017770 -.00000132  00000-0  00000+0 0  9998
2 29236   0.0213 229.6632 0003000 328.3431 295.6757  1.00271040 34189
DIRECTV 9S              
1 29494U 06043A   15289.21626740 -.00000119  00000-0  00000+0 0  9995
2 29494   0.0151 205.0866 0003173 356.1129 160.0032  1.00272431 33036
XM-4 (BLUES)            
1 29520U 06049A   15289.53140499 -.00000028  00000-0  00000+0 0  9997
2 29520   0.0065 231.2345 0000402 207.3289  22.2696  1.00270275 32925
GALAXY 17 (G-17)        
1 31307U 07016B   15288.56264572 -.00000180  00000-0  00000+0 0  9998
2 31307   0.0426  11.5037 0003223 204.7651 279.0923  1.00276849 30990
DIRECTV 10              
1 31862U 07032A   15289.38569384 -.00000108  00000-0  00000+0 0  9992
2 31862   0.0152  39.9777 0001203 268.4135 112.2066  1.00273767 30337
SPACEWAY 3              
1 32018U 07036A   15288.58458127 -.00000158  00000-0  00000+0 0  9998
2 32018   0.0071 311.2420 0000340  12.9340 175.1437  1.00280143 30047
INTELSAT 11 (IS-11)     
1 32253U 07044B   15288.31984162 -.00000274  00000-0  00000+0 0  9991
2 32253   0.0134 229.3009 0002761 326.2771 260.1370  1.00272714 29446
HORIZONS-2              
1 32388U 07063B   15289.59126669 -.00000188  00000-0  00000+0 0  9996
2 32388   0.0144 260.1481 0002237 159.9288 262.5016  1.00272699 28809
DIRECTV 11              
1 32729U 08013A   15289.38578531 -.00000131  00000-0  00000+0 0  9995
2 32729   0.0198  39.5230 0000189 312.3390  72.4445  1.00271244 27864
GALAXY 18 (G-18)        
1 32951U 08024A   15289.39631679  .00000020  00000-0  00000+0 0  9994
2 32951   0.0045  66.8668 0002675 147.6568 189.7427  1.00271847 27016
INTELSAT 25 (IS-25)     
1 33153U 08034A   15285.39630631 -.00000235  00000-0  00000+0 0  9992
2 33153   0.0105 264.0742 0004707 278.7449 309.0304  1.00271346 26525
GALAXY 19 (G-19)        
1 33376U 08045A   15286.48438253 -.00000148  00000-0  00000+0 0  9991
2 33376   0.0036 190.7118 0002907  13.9002 254.5341  1.00273305 25735
SIRIUS FM-5             
1 35493U 09034A   15285.53621873 -.00000156  00000-0  00000+0 0  9998
2 35493   0.0095 260.6036 0000771  92.1260 125.1202  1.00272726 22866
INTELSAT 14 (IS-14)     
1 36097U 09064A   15288.24983855 -.00000279  00000-0  00000+0 0  9990
2 36097   0.0124 257.5071 0002189 310.9295 219.9987  1.00272881 21625
INTELSAT 15 (IS-15)     
1 36106U 09067A   15288.81598499 -.00000191  00000-0  00000-0 0  9997
2 36106   0.0091 242.1300 0002390 335.8860 184.9379  1.00272011  2240
DIRECTV 12              
1 36131U 09075A   15288.29481796 -.00000108  00000-0  00000+0 0  9994
2 36131   0.0136 231.1366 0000428 232.8101 282.8971  1.00270096 21307
INTELSAT 16 (IS-16)     
1 36397U 10006A   15288.31193469 -.00000250  00000-0  00000+0 0  9992
2 36397   0.0112 253.0057 0001405 289.4376 237.2140  1.00271885 20660
XM-5                    
1 37185U 10053A   15288.31169075 -.00000211  00000-0  00000+0 0  9993
2 37185   0.0183 278.7706 0000008 318.7405 173.0351  1.00271347 18364
INTELSAT 17 (IS-17)     
1 37238U 10065B   15289.59082456 -.00000007  00000-0  00000+0 0  9996
2 37238   0.0131 252.3600 0002696 310.8803 100.2690  1.00273020 17847
INTELSAT NEW DAWN       
1 37392U 11016A   15289.77104633  .00000151  00000-0  00000+0 0  9995
2 37392   0.0166 244.2861 0000657 299.2645 151.8219  1.00272341 16465
INTELSAT 18 (IS-18)     
1 37834U 11056A   15289.54793275  .00000048  00000-0  00000+0 0  9996
2 37834   0.0054  81.1199 0001679 132.2583 188.6433  1.00273262 14788
INTELSAT 22 (IS-22)     
1 38098U 12011A   15287.60010898 -.00000066  00000-0  00000-0 0  9991
2 38098   0.0274 343.9585 0002711 237.3406  89.6933  1.00273045 12953
INTELSAT 19 (IS-19)     
1 38356U 12030A   15285.39094506 -.00000067  00000-0  00000+0 0  9991
2 38356   0.0151 327.7453 0003189 236.6622 123.0026  1.00272655 12390
INTELSAT 20 (IS-20)     
1 38740U 12043A   15288.73779876 -.00000030  00000-0  00000+0 0  9993
2 38740   0.0183 269.4658 0000936 286.0045 162.6053  1.00273135 11747
INTELSAT 21 (IS-21)     
1 38749U 12045A   15287.11998742 -.00000292  00000-0  00000+0 0  9990
2 38749   0.0105 134.7604 0001888  73.9842 158.8228  1.00271538 11544
INTELSAT 23 (IS-23)     
1 38867U 12057A   15289.45625500 -.00000289  00000-0  00000+0 0  9998
2 38867   0.0073 236.9896 0001670 317.4446 301.5013  1.00271216 11049
SIRIUS FM-6             
1 39360U 13058A   15287.98050765 -.00000023  00000-0  00000+0 0  9996
2 39360   0.0233 244.1464 0000769 137.4181 238.4876  1.00271625  7259
INTELSAT 30 (IS-30)     
1 40271U 14062A   15288.58453881 -.00000156  00000-0  00000+0 0  9995
2 40271   0.0082 184.9224 0001002  16.9980 297.2727  1.00271275  3680
